<?xml version="1.0" encoding="UTF-8"?>
<kml xmlns="http://www.opengis.net/kml/2.2" xmlns:gx="http://www.google.com/kml/ext/2.2" xmlns:kml="http://www.opengis.net/kml/2.2" xmlns:atom="http://www.w3.org/2005/Atom">
<GroundOverlay>
	<name>8oblast_MOCKBAR</name>
	<description><![CDATA[<a href="https://github.com/aibolem/kml/wiki">https://github.com/aibolem/kml/wiki</a>]]></description>
	<LookAt>
		<gx:TimeStamp><when>2025-10-01T15:01:00Z</when>
</gx:TimeStamp>
		<longitude>37.6064916341658</longitude>
		<latitude>55.75191206506477</latitude>
		<altitude>0</altitude>
		<heading>-0.005102664931085568</heading>
		<tilt>4.969584252274155</tilt>
		<range>50274.24168633176</range>
		<gx:altitudeMode>relativeToSeaFloor</gx:altitudeMode>
	</LookAt>
	<color>a6ffffff</color>
	<Icon>
		<href>8oblast_MOCKBAR.png</href>
		<refreshMode>onExpire</refreshMode>
		<viewRefreshMode>onRequest</viewRefreshMode>
		<viewBoundScale>0.75</viewBoundScale>
	</Icon>
	<LatLonBox>
		<north>56.0120583880984</north>
		<south>55.49168047711144</south>
		<east>38.01139378441651</east>
		<west>37.0535982522472</west>
	</LatLonBox>
</GroundOverlay>
</kml>
