<?xml version="1.0" encoding="UTF-8"?>
<kml xmlns="http://www.opengis.net/kml/2.2" xmlns:gx="http://www.google.com/kml/ext/2.2" xmlns:kml="http://www.opengis.net/kml/2.2" xmlns:atom="http://www.w3.org/2005/Atom">
<GroundOverlay>
	<name>acidheadnuc_v-65.87</name>
	<description><![CDATA[<a href="https://github.com/aibolem/kml/wiki/iKOPEEK_ASCII">https://github.com/aibolem/kml/wiki/iKOPEEK_ASCII</a>]]></description>
	<LookAt>
		<gx:TimeStamp><when>2025-10-05T11:51:00Z</when>
</gx:TimeStamp>
		<longitude>127.0455673682533</longitude>
		<latitude>37.55755650962994</latitude>
		<altitude>0</altitude>
		<heading>-3.180554681463516e-15</heading>
		<tilt>0</tilt>
		<range>2748.000000001944</range>
		<gx:altitudeMode>relativeToSeaFloor</gx:altitudeMode>
	</LookAt>
	<color>bfffffff</color>
	<Icon>
		<href>acidheadnuc_v-65.87.png</href>
		<refreshMode>onExpire</refreshMode>
		<viewRefreshMode>onRequest</viewRefreshMode>
		<viewBoundScale>0.75</viewBoundScale>
	</Icon>
	<LatLonBox>
		<north>37.56291944444444</north>
		<south>37.553425</south>
		<east>127.0514138888889</east>
		<west>127.0396277777778</west>
	</LatLonBox>
</GroundOverlay>
</kml>
