<?xml version="1.0" encoding="UTF-8"?>
<kml xmlns="http://www.opengis.net/kml/2.2" xmlns:gx="http://www.google.com/kml/ext/2.2" xmlns:kml="http://www.opengis.net/kml/2.2" xmlns:atom="http://www.w3.org/2005/Atom">
<GroundOverlay>
	<name>doormonetdzhanibekov</name>
	<description><![CDATA[<a href="https://github.com/aibolem/WebWorldWind/wiki">https://github.com/aibolem/WebWorldWind/wiki</a>]]></description>
	<LookAt>
		<gx:TimeStamp><when>2025-09-20T09:40:00Z</when>
</gx:TimeStamp>
		<longitude>49.46943298931756</longitude>
		<latitude>39.81043908351301</latitude>
		<altitude>0</altitude>
		<heading>-1.897828962021032</heading>
		<tilt>0</tilt>
		<range>3083248.266257808</range>
		<gx:altitudeMode>relativeToSeaFloor</gx:altitudeMode>
	</LookAt>
	<color>a3ffffff</color>
	<drawOrder>1</drawOrder>
	<Icon>
		<href>old_door.png</href>
		<refreshMode>onExpire</refreshMode>
		<viewRefreshMode>onRequest</viewRefreshMode>
		<viewBoundScale>0.75</viewBoundScale>
	</Icon>
	<altitude>800000</altitude>
	<altitudeMode>absolute</altitudeMode>
	<LatLonBox>
		<north>41.13893428794135</north>
		<south>37.58303151016359</south>
		<east>52.63600227893099</east>
		<west>50.04766616781988</west>
		<rotation>-13.7029914855957</rotation>
	</LatLonBox>
	<atom:link rel="app" href="https://www.google.com/earth/about/versions/#earth-pro" title="Google Earth Pro 7.3.6.10201"></atom:link>
</GroundOverlay>
</kml>
