<?xml version="1.0" encoding="UTF-8"?>
<kml xmlns="http://www.opengis.net/kml/2.2" xmlns:gx="http://www.google.com/kml/ext/2.2" xmlns:kml="http://www.opengis.net/kml/2.2" xmlns:atom="http://www.w3.org/2005/Atom">
<GroundOverlay>
	<name>Greenland_Crystal_Shoe</name>
	<description><![CDATA[<a href="https://github.com/aibolem/kml/wiki">https://github.com/aibolem/kml/wiki</a>]]></description>
	<LookAt>
		<gx:TimeStamp><when>2025-10-06T19:05:00Z</when>
</gx:TimeStamp>
		<longitude>87.6993008893248</longitude>
		<latitude>33.56243007352167</latitude>
		<altitude>0</altitude>
		<heading>0</heading>
		<tilt>0</tilt>
		<range>3584543.224912971</range>
		<gx:altitudeMode>relativeToSeaFloor</gx:altitudeMode>
	</LookAt>
	<color>baffffff</color>
	<drawOrder>1</drawOrder>
	<Icon>
		<href>greenld_v27.26.png</href>
		<refreshMode>onExpire</refreshMode>
		<viewRefreshMode>onRequest</viewRefreshMode>
		<viewBoundScale>0.75</viewBoundScale>
	</Icon>
	<LatLonBox>
		<north>42.35620277777778</north>
		<south>36.10192777777778</south>
		<east>91.39353055555556</east>
		<west>76.10980277777777</west>
	</LatLonBox>
</GroundOverlay>
</kml>
