<?xml version="1.0" encoding="UTF-8"?>
<kml xmlns="http://www.opengis.net/kml/2.2" xmlns:gx="http://www.google.com/kml/ext/2.2" xmlns:kml="http://www.opengis.net/kml/2.2" xmlns:atom="http://www.w3.org/2005/Atom">
<GroundOverlay>
	<name>IKOLAY_SCALL</name>
	<Icon>
		<href>files/IKOLAY_SCALL.png</href>
		<viewBoundScale>0.75</viewBoundScale>
	</Icon>
	<LatLonBox>
		<north>37.56323801679346</north>
		<south>37.55299141867395</south>
		<east>127.0519551251876</east>
		<west>127.0395298192729</west>
		<rotation>90.1309814453125</rotation>
	</LatLonBox>
</GroundOverlay>
</kml>
