<?xml version="1.0" encoding="UTF-8"?>
<kml xmlns="http://www.opengis.net/kml/2.2" xmlns:gx="http://www.google.com/kml/ext/2.2" xmlns:kml="http://www.opengis.net/kml/2.2" xmlns:atom="http://www.w3.org/2005/Atom">
<GroundOverlay>
	<name>ISOCAUNUC_SI</name>
	<description><![CDATA[<a href="https://aibolem.github.io/kml/kml/index.html">https://aibolem.github.io/kml/kml/index.html</a>]]></description>
	<LookAt>
		<gx:TimeStamp><when>2025-09-29T06:00:00Z</when>
</gx:TimeStamp>
		<longitude>44.03047311040601</longitude>
		<latitude>44.37883473208535</latitude>
		<altitude>0</altitude>
		<heading>0.8860066455162395</heading>
		<tilt>0</tilt>
		<range>1934541.176873096</range>
		<gx:altitudeMode>relativeToSeaFloor</gx:altitudeMode>
	</LookAt>
	<color>b8ffffff</color>
	<Icon>
		<href>L:/Clones_github/kml-gh-pages/png_svg_tiff/ISOCAUNUC_SI_975kb_R57.56_cr-min.png</href>
		<refreshMode>onExpire</refreshMode>
		<viewRefreshMode>onRequest</viewRefreshMode>
		<viewBoundScale>0.75</viewBoundScale>
	</Icon>
	<LatLonBox>
		<north>49.1849427517724</north>
		<south>36.15467488908177</south>
		<east>50.84136323727128</east>
		<west>36.41001002602433</west>
	</LatLonBox>
	<atom:link rel="app" href="https://www.google.com/earth/about/versions/#earth-pro" title="Google Earth Pro 7.3.6.10201"></atom:link>
</GroundOverlay>
</kml>
