<?xml version="1.0" encoding="UTF-8"?>
<kml xmlns="http://www.opengis.net/kml/2.2" xmlns:gx="http://www.google.com/kml/ext/2.2" xmlns:kml="http://www.opengis.net/kml/2.2" xmlns:atom="http://www.w3.org/2005/Atom">
<GroundOverlay>
	<name>ISOCAUNUC_SI_975kb_R57.56_cr-min.png</name>
	<description><![CDATA[<a href="https://github.com/aibolem/kml/wiki">https://github.com/aibolem/kml/wiki</a>]]></description>
	<LookAt>
		<gx:TimeStamp><when>2025-09-20T09:40:00Z</when>
</gx:TimeStamp>
		<longitude>44.3080385754681</longitude>
		<latitude>40.46922306233919</latitude>
		<altitude>0</altitude>
		<heading>-1.015668852807402</heading>
		<tilt>0</tilt>
		<range>1889423.762255747</range>
		<gx:altitudeMode>relativeToSeaFloor</gx:altitudeMode>
	</LookAt>
	<color>99ffffff</color>
	<drawOrder>4</drawOrder>
	<Icon>
		<href>ISOCAUNUC_SI_975kb_R57.56_cr-min.png</href>
		<refreshMode>onExpire</refreshMode>
		<viewRefreshMode>onRequest</viewRefreshMode>
		<viewBoundScale>0.75</viewBoundScale>
	</Icon>
	<LatLonBox>
		<north>48.78905958669474</north>
		<south>36.93735646161108</south>
		<east>50.96879803955099</east>
		<west>36.40904120210245</west>
		<rotation>-2.238865852355957</rotation>
	</LatLonBox>
	<atom:link rel="app" href="https://www.google.com/earth/about/versions/#earth-pro" title="Google Earth Pro 7.3.6.10201"></atom:link>
</GroundOverlay>
</kml>
