<?xml version="1.0" encoding="UTF-8"?>
<kml xmlns="http://www.opengis.net/kml/2.2" xmlns:gx="http://www.google.com/kml/ext/2.2" xmlns:kml="http://www.opengis.net/kml/2.2" xmlns:atom="http://www.w3.org/2005/Atom">
<GroundOverlay>
	<name>MOCKBAPEKA_Ci_Monet</name>
	<description><![CDATA[<a href="https://barionleg.github.io/leaflet.control.opacity/MOCKBAPCMK.html">https://github.com/barionleg/leaflet.control.opacity/wiki</a>]]></description>
	<LookAt>
		<gx:TimeStamp><when>2025-08-30T18:47:00Z</when>
</gx:TimeStamp>
		<longitude>37.68474539765295</longitude>
		<latitude>55.70722026867511</latitude>
		<altitude>0</altitude>
		<heading>0.07762843000556717</heading>
		<tilt>0.89869866546571</tilt>
		<range>25548.55814714415</range>
		<gx:altitudeMode>relativeToSeaFloor</gx:altitudeMode>
	</LookAt>
	<color>80ffffff</color>
	<Icon>
		<href>rpcmt.png</href>
		<refreshMode>onExpire</refreshMode>
		<viewBoundScale>0.75</viewBoundScale>
	</Icon>
	<LatLonBox>
		<north>55.75256666666667</north>
		<south>55.65879166666667</south>
		<east>37.72438888888889</east>
		<west>37.58803611111112</west>
		<rotation>-4.2844</rotation>
	</LatLonBox>
	<atom:link rel="app" href="https://www.google.com/earth/about/versions/#earth-pro" title="Google Earth Pro 7.3.6.10201"></atom:link>
</GroundOverlay>
</kml>
