<?xml version="1.0" encoding="UTF-8"?>
<kml xmlns="http://www.opengis.net/kml/2.2" xmlns:gx="http://www.google.com/kml/ext/2.2" xmlns:kml="http://www.opengis.net/kml/2.2" xmlns:atom="http://www.w3.org/2005/Atom">
<GroundOverlay>
	<name>MOCKBAbRhAIN2_vinkel_10.82</name>
	<description><![CDATA[<a href="https://aibolem.github.io/kml/kml/kml4.html">https://aibolem.github.io/kml/kml/kml4.html</a>]]></description>
	<LookAt>
		<gx:TimeStamp><when>2025-08-31T19:54:00Z</when>
</gx:TimeStamp>
		<longitude>37.68994591052987</longitude>
		<latitude>55.7453160917614</latitude>
		<altitude>0</altitude>
		<heading>-0.1370137556892477</heading>
		<tilt>0</tilt>
		<range>58152.40233159751</range>
		<gx:altitudeMode>relativeToSeaFloor</gx:altitudeMode>
	</LookAt>
	<color>8fffffff</color>
	<Icon>
		<href>MOCKBAbRhAIN_cropped_vertical_vinkel_10.82_rectangle.png</href>
		<refreshMode>onExpire</refreshMode>
		<viewRefreshMode>onRequest</viewRefreshMode>
		<viewBoundScale>0.75</viewBoundScale>
	</Icon>
	<LatLonBox>
		<north>55.94684802098924</north>
		<south>55.55594589274738</south>
		<east>37.87675926843667</east>
		<west>37.36872461855492</west>
	</LatLonBox>
	<atom:link rel="app" href="https://www.google.com/earth/about/versions/#earth-pro" title="Google Earth Pro 7.3.6.10201"></atom:link>
</GroundOverlay>
</kml>
