<?xml version="1.0" encoding="UTF-8"?>
<kml xmlns="http://www.opengis.net/kml/2.2" xmlns:gx="http://www.google.com/kml/ext/2.2" xmlns:kml="http://www.opengis.net/kml/2.2" xmlns:atom="http://www.w3.org/2005/Atom">
<GroundOverlay>
	<name>MOCKBAbRhAIN</name>
	<description><![CDATA[<a href="https://barionleg.github.io/leaflet.control.opacity/MOCKBAPCMK.html">https://barionleg.github.io/leaflet.control.opacity/MOCKBAPCMK.html</a>]]></description>
	<LookAt>
		<gx:TimeStamp><when>2025-08-31T14:18:00Z</when>
</gx:TimeStamp>
		<longitude>37.64481763013745</longitude>
		<latitude>55.70504251213072</latitude>
		<altitude>0</altitude>
		<heading>0.02430799547177644</heading>
		<tilt>0</tilt>
		<range>94355.15030022209</range>
		<gx:altitudeMode>relativeToSeaFloor</gx:altitudeMode>
	</LookAt>
	<color>b8ffffff</color>
	<Icon>
		<href>MOCKBAbRhAIN_cropped_vertical_rectangle.png</href>
		<viewBoundScale>0.75</viewBoundScale>
	</Icon>
	<LatLonBox>
		<north>55.91678363848777</north>
		<south>55.58669126752467</south>
		<east>37.83531942951652</east>
		<west>37.38123395906576</west>
		<rotation>10.87979984283447</rotation>
	</LatLonBox>
	<atom:link rel="app" href="https://www.google.com/earth/about/versions/#earth-pro" title="Google Earth Pro 7.3.6.10201"></atom:link>
</GroundOverlay>
</kml>
