<?xml version="1.0" encoding="UTF-8"?>
<kml xmlns="http://www.opengis.net/kml/2.2" xmlns:gx="http://www.google.com/kml/ext/2.2" xmlns:kml="http://www.opengis.net/kml/2.2" xmlns:atom="http://www.w3.org/2005/Atom">
<GroundOverlay>
	<name>h²o_condesator_underground_reservoir_oharam_m</name>
	<description><![CDATA[<a href="https://github.com/aibolem/WebWorldWind/wiki/water_collecting_building_Pyramides">https://github.com/aibolem/WebWorldWind/wiki/water_collecting_building_Pyramides</a>]]></description>
	<LookAt>
		<gx:TimeStamp><when>2025-01-22T15:14:00Z</when>
</gx:TimeStamp>
		<longitude>31.12755565510104</longitude>
		<latitude>29.97348521442192</latitude>
		<altitude>0</altitude>
		<heading>-17.49197502650079</heading>
		<tilt>33.9664062068186</tilt>
		<range>1020.049730216069</range>
		<gx:altitudeMode>relativeToSeaFloor</gx:altitudeMode>
	</LookAt>
	<Icon>
		<href>shm_3d_pyramid_sc_f.png</href>
		<refreshMode>onExpire</refreshMode>
		<viewRefreshMode>onRequest</viewRefreshMode>
		<viewBoundScale>0.75</viewBoundScale>
	</Icon>
	<gx:altitudeMode>clampToSeaFloor</gx:altitudeMode>
	<LatLonBox>
		<north>29.97685536171358</north>
		<south>29.97488205554795</south>
		<east>31.1320126622474</east>
		<west>31.1295507585336</west>
	</LatLonBox>
	<atom:link rel="app" href="https://www.google.com/earth/about/versions/#earth-pro" title="Google Earth Pro 7.3.6.10201"></atom:link>
</GroundOverlay>
</kml>
