<?xml version="1.0" encoding="UTF-8"?>
<kml xmlns="http://www.opengis.net/kml/2.2" xmlns:gx="http://www.google.com/kml/ext/2.2" xmlns:kml="http://www.opengis.net/kml/2.2" xmlns:atom="http://www.w3.org/2005/Atom">
<GroundOverlay>
	<name>PARIS_TWIBdEX_db</name>
	<description><![CDATA[<a href="https://barionleg.github.io/leaflet.control.opacity/index.html">https://github.com/barionleg/leaflet.control.opacity/wiki</a>]]></description>
	<LookAt>
		<gx:TimeStamp><when>2025-08-30T18:47:00Z</when>
</gx:TimeStamp>
		<longitude>2.345436710703754</longitude>
		<latitude>48.86013203771214</latitude>
		<altitude>0</altitude>
		<heading>-22.45850855561009</heading>
		<tilt>0</tilt>
		<range>27481.16996532704</range>
		<gx:altitudeMode>relativeToSeaFloor</gx:altitudeMode>
	</LookAt>
	<gx:balloonVisibility>1</gx:balloonVisibility>
	<color>cfffffff</color>
	<Icon>
		<href>28oomcsira.png</href>
		<refreshMode>onExpire</refreshMode>
		<viewRefreshMode>onRequest</viewRefreshMode>
		<viewBoundScale>0.75</viewBoundScale>
	</Icon>
	<LatLonBox>
		<north>48.94746280882855</north>
		<south>48.75964469656174</south>
		<east>2.519930218911755</east>
		<west>2.164988181635543</west>
		<rotation>-0.2658199071884156</rotation>
	</LatLonBox>
	<atom:link rel="app" href="https://www.google.com/earth/about/versions/#earth-pro" title="Google Earth Pro 7.3.6.10201"></atom:link>
</GroundOverlay>
</kml>
