<?xml version="1.0" encoding="UTF-8"?>
<kml xmlns="http://www.opengis.net/kml/2.2" xmlns:gx="http://www.google.com/kml/ext/2.2" xmlns:kml="http://www.opengis.net/kml/2.2" xmlns:atom="http://www.w3.org/2005/Atom">
<GroundOverlay>
	<name>TbiicsAP</name>
	<description><![CDATA[<a href="https://aibolem.github.io/periodic-table-1/packages/index.html">https://aibolem.github.io/periodic-table-1/packages/index.html</a>]]></description>
	<LookAt>
		<gx:TimeStamp><when>2025-09-01T21:05:00Z</when>
</gx:TimeStamp>
		<longitude>30.08924628677357</longitude>
		<latitude>43.25435318419466</latitude>
		<altitude>0</altitude>
		<heading>-0.9316672045564912</heading>
		<tilt>0</tilt>
		<range>3191669.850438354</range>
		<gx:altitudeMode>relativeToSeaFloor</gx:altitudeMode>
	</LookAt>
	<color>d4ffffff</color>
	<Icon>
		<href>TbIics_MenDeLeev_ꟼP.png</href>
		<refreshMode>onExpire</refreshMode>
		<viewBoundScale>0.75</viewBoundScale>
	</Icon>
	<LatLonBox>
		<north>46.72747456312728</north>
		<south>41.04493733614064</south>
		<east>38.13386343077227</east>
		<west>29.35621170872401</west>
	</LatLonBox>
	<atom:link rel="app" href="https://www.google.com/earth/about/versions/#earth-pro" title="Google Earth Pro 7.3.6.10201"></atom:link>
</GroundOverlay>
</kml>
